[{"OBJECT_NAME":"WEILAI 1R","OBJECT_ID":"2019-093F","EPOCH":"2026-03-09T22:33:48.244608","MEAN_MOTION":14.997592,"ECCENTRICITY":0.00116762,"INCLINATION":97.7939,"RA_OF_ASC_NODE":158.7373,"ARG_OF_PERICENTER":23.5076,"MEAN_ANOMALY":336.6679,"EPHEMERIS_TYPE":0,"CLASSIFICATION_TYPE":"U","NORAD_CAT_ID":44884,"ELEMENT_SET_NO":999,"REV_AT_EPOCH":33754,"BSTAR":0.00050142794,"MEAN_MOTION_DOT":6.146e-5,"MEAN_MOTION_DDOT":0},{"OBJECT_NAME":"FORMOSAT-8A","OBJECT_ID":"2025-276A","EPOCH":"2026-03-09T17:53:55.297824","MEAN_MOTION":15.0113297,"ECCENTRICITY":0.00020333,"INCLINATION":97.6538,"RA_OF_ASC_NODE":144.453,"ARG_OF_PERICENTER":294.9162,"MEAN_ANOMALY":65.185,"EPHEMERIS_TYPE":0,"CLASSIFICATION_TYPE":"U","NORAD_CAT_ID":66666,"ELEMENT_SET_NO":999,"REV_AT_EPOCH":1514,"BSTAR":0.00021775611,"MEAN_MOTION_DOT":2.73e-5,"MEAN_MOTION_DDOT":0}]
